{
  "type": "FeatureCollection",
  "features": [
    {
      "type": "Feature",
      "id": "5d015ccd-3842-4ece-bd66-6c9acbae0d12",
      "geometry": {
        "type": "Point",
        "coordinates": [
          139.704188,
          35.667313
        ]
      },
      "properties": {
        "title": "クレープとエスプレッソとジェラ―トと",
        "description": "TVアニメ3期3話や2期EDで登場した場所",
        "image": [
          "images/5d015ccd-3842-4ece-bd66-6c9acbae0d12.jpg"
        ],
        "tags": [
          "アニメ"
        ]
      }
    },
    {
      "type": "Feature",
      "id": "f0db507b-c8c0-4c84-af8c-dc70b9022013",
      "geometry": {
        "type": "Point",
        "coordinates": [
          139.696813,
          35.667313
        ]
      },
      "properties": {
        "title": "代々木公園野外ステージ",
        "description": "TVアニメ ラブライブ！スーパースター!! 1期第3話などにて登場",
        "image": [
          "images/f0db507b-c8c0-4c84-af8c-dc70b9022013.jpg"
        ],
        "tags": [
          "アニメ"
        ]
      }
    }
  ]
}